ZHUHAI-1 02 (CAS-4B)    
1 42759U 17034B   23124.16824147  .00009742  00000+0  49938-3 0  9994
2 42759  43.0192   0.2557 0010471 185.8814 317.5904 15.16656878324950
ZHUHAI-1 01 (CAS-4A)    
1 42761U 17034D   23124.05323675  .00008458  00000+0  43456-3 0  9997
2 42761  43.0177 359.4315 0011067 186.3123 317.7107 15.16705266324940
MAX VALIER SAT          
1 42778U 17036P   23123.65993980  .00019333  00000+0  53842-3 0  9998
2 42778  97.1611 159.6058 0006386 252.0246 108.0303 15.36818672325881
RADFXSAT (FOX-1B)       
1 43017U 17073E   23123.93955462  .00004420  00000+0  31560-3 0  9994
2 43017  97.6369  10.0347 0234331 215.0210 143.5405 14.85508711294613
FOX-1D (AO-92)          
1 43137U 18004AC  23124.14555243  .00032197  00000+0  72834-3 0  9990
2 43137  97.3306 202.9549 0004391 291.7574  68.3206 15.43078642295507
DIWATA-2B               
1 43678U 18084H   23124.09980648  .00002288  00000+0  22417-3 0  9993
2 43678  98.0146 267.2016 0008403 312.9481  47.1010 14.93279830245689
ES'HAIL 2               
1 43700U 18090A   23124.06660128  .00000159  00000+0  00000+0 0  9996
2 43700   0.0125 269.7324 0001531 160.8395 200.9367  1.00274963 16487
FOX-1CLIFF (AO-95)      
1 43770U 18099N   23124.12041280  .00005464  00000+0  45064-3 0  9998
2 43770  97.5757 186.8456 0010226 276.0300  83.9758 14.99386247241000
ITASAT 1                
1 43786U 18099AE  23124.11381480  .00004255  00000+0  35433-3 0  9999
2 43786  97.5774 187.8757 0012303 266.0005  93.9812 14.99117993241046
JY1SAT (JO-97)          
1 43803U 18099AX  23124.17173794  .00005162  00000+0  41576-3 0  9995
2 43803  97.5709 187.8882 0011655 251.3147 108.6812 15.00314082241096
UWE-4                   
1 43880U 18111E   23124.18663498  .00005465  00000+0  42398-3 0  9990
2 43880  97.6412  30.0689 0015166 330.0597  29.9758 15.01688949235760
NEXUS (FO-99)           
1 43937U 19003F   23123.89625897  .00046824  00000+0  88033-3 0  9992
2 43937  97.0912 151.7823 0015929  84.6329 275.6740 15.48294251239186
JAISAT-1                
1 44419U 19038F   23123.92889563  .00022378  00000+0  81183-3 0  9999
2 44419  97.6721 104.2509 0018242  97.3721 262.9592 15.28190085211775
DUCHIFAT-3              
1 44854U 19089C   23124.00661542  .00008234  00000+0  56492-3 0  9993
2 44854  36.9641 355.1931 0010816 316.5914 178.2639 15.05554108186171
CAS-6 (TIANQIN 1)       
1 44881U 19093C   23124.15470388  .00001159  00000+0  15094-3 0  9992
2 44881  97.8614 203.3552 0013851 217.5333 142.4917 14.82432096182271
RS-44 & BREEZE-KM R/B   
1 44909U 19096E   23123.81490398  .00000012  00000+0  11121-4 0  9996
2 44909  82.5260  17.4314 0216412 290.8716  66.9336 12.79720278156482
BY70-2                  
1 45857U 20042B   23124.14655225  .00019252  00000+0  20557-2 0  9998
2 45857  97.9256 203.9491 0011046 148.2499 211.9371 14.88798462152982
SALSAT                  
1 46495U 20068K   23123.84881482  .00004540  00000+0  30425-3 0  9997
2 46495  97.7677  71.4054 0013623 271.2257  88.7409 15.07331629142397
RADFXSAT-2 (AO-109)     
1 47311U 21002C   23123.83917430  .00026082  00000+0  71981-3 0  9993
2 47311  60.6816 228.7535 0020891 151.5026 208.7215 15.36811787127469
UVSQ-SAT                
1 47438U 21006AB  23123.70381639  .00013823  00000+0  58883-3 0  9994
2 47438  97.3889 181.4847 0009207 229.9123 130.1307 15.23043979125872
DIY-1 (ARDUIQUBE)       
1 47963U 21022AH  23123.68799080  .00117113  00000+0  23394-2 0  9990
2 47963  97.5021  30.2840 0014019 100.0292 260.2540 15.46283191115681
XW-3 (CAS-9)            
1 50466U 21131B   23124.22178222  .00000648  00000+0  22512-3 0  9999
2 50466  98.5515 205.9050 0003034 268.1989  91.8851 14.38860318 71035
TEVEL-3                 
1 50988U 22002E   23124.20975034  .00019086  00000+0  80229-3 0  9995
2 50988  97.4368 191.5223 0008185  40.9424  33.9350 15.23432454 72068
TEVEL-8                 
1 50989U 22002F   23124.08906108  .00019087  00000+0  80387-3 0  9994
2 50989  97.4381 191.4567 0008468  39.3116   1.5790 15.23365376 72043
TEVEL-5                 
1 50998U 22002Q   23124.10889407  .00019928  00000+0  81871-3 0  9992
2 50998  97.4359 191.7565 0009221  34.5223  26.0158 15.24188638 72071
TEVEL-6                 
1 50999U 22002R   23124.23597469  .00019701  00000+0  80932-3 0  9997
2 50999  97.4356 191.8785 0009073  34.5313  10.9468 15.24194997 72092
TEVEL-1                 
1 51013U 22002AF  23124.09024806  .00019175  00000+0  80714-3 0  9992
2 51013  97.4368 191.3529 0007951  43.1264  50.0682 15.23386507 72045
TEVEL-7                 
1 51062U 22002CG  23124.15930623  .00019149  00000+0  80610-3 0  9992
2 51062  97.4376 191.5011 0008350  39.3999  18.5169 15.23381525 72057
TEVEL-4                 
1 51063U 22002CH  23124.15866914  .00019075  00000+0  80407-3 0  9996
2 51063  97.4382 191.4882 0008164  39.7552 348.9833 15.23337019 72059
TEVEL-2                 
1 51069U 22002CP  23124.14218803  .00019195  00000+0  80690-3 0  9996
2 51069  97.4367 191.4294 0008167  40.5160  13.9220 15.23430509 72050
GREENCUBE               
1 53106U 22080B   23121.98189554 -.00000003  00000+0  00000+0 0  9997
2 53106  70.1683 335.7822 0008237 195.3909 164.6501  6.42557335 18785
RS29S (SXC3-2110 CYCLO*)
1 53373U 22096D   23124.10190593  .00030304  00000+0  85577-3 0  9994
2 53373  97.4174  29.9694 0002395  79.6357  27.7681 15.36315219 40911
RS32S (SXC3-212 MONITO*)
1 53374U 22096E   23124.05247270  .00027555  00000+0  79505-3 0  9992
2 53374  97.4165  29.8616 0001815  71.5527  54.7677 15.35661688 40908
RS34S (SXC3-218 KUZBAS*)
1 53375U 22096F   23124.28334200  .00023099  00000+0  70061-3 0  9995
2 53375  97.4175  29.8892 0001710  77.3243  45.8761 15.34121337 40927
RS23S (SXC3-21 UTMN)    
1 53376U 22096G   23124.19546941  .00023725  00000+0  70888-3 0  9996
2 53376  97.4178  29.8619 0001862  73.1623  81.3796 15.34591070 40919
RS28S (SXC3-214 MIET-A*)
1 53377U 22096H   23124.15600991  .00022664  00000+0  69177-3 0  9999
2 53377  97.4179  29.7644 0001542  67.1728  70.5585 15.33924938 40909
RS26S (KAI-1)           
1 53378U 22096J   23124.08691902  .00018012  00000+0  57227-3 0  9999
2 53378  97.4193  29.5486 0001309  73.4682  39.0955 15.32694061 40886
RS19S (SXC3-219 ISOI)   
1 53381U 22096M   23124.12066544  .00021540  00000+0  64256-3 0  9996
2 53381  97.4175  29.9374 0002873 174.2415 294.2360 15.34658906 40910
RS21S (CUBESX-HSE-2)    
1 53383U 22096P   23124.17877394  .00023112  00000+0  68290-3 0  9995
2 53383  97.4181  30.0440 0002874 178.7336 341.4942 15.34946961 40921
RS30S (SXC3-217 SIREN)  
1 53384U 22096Q   23124.17208735  .00018900  00000+0  58017-3 0  9998
2 53384  97.4188  29.9095 0003045 179.7179 343.2829 15.33779469 40918
RS20S (GEOSCAN-EDELVEIS)
1 53385U 22096R   23124.18668650  .00030767  00000+0  82916-3 0  9996
2 53385  97.4172  30.4768 0003192 170.3832 355.2606 15.37764530 40982
RS33S (SXC3-215 VIZARD) 
1 53386U 22096S   23124.05760773  .00040530  00000+0  99381-3 0  9995
2 53386  97.4168  30.7818 0003917 170.3782 316.0415 15.40602767 40986
CAS-5A (FO-118)         
1 54684U 22167C   23124.14375182  .00012975  00000+0  73577-3 0  9993
2 54684  97.5552 262.0737 0015019 126.0887  47.3273 15.13011067 22013
